ISS OBJECT YC           
1 67686U 98067YC  26065.24171538  .00050083  00000+0  81033-3 0  9996
2 67686  51.6306  88.8853 0007809 138.1788 221.9799 15.52288949  4259
LEOPARD                 
1 67687U 98067YD  26065.24784318  .00042747  00000+0  70897-3 0  9997
2 67687  51.6309  88.9257 0007791 142.6903 217.4629 15.51667616  4175
ISS OBJECT YE           
1 67688U 98067YE  26065.24369296  .00045678  00000+0  74593-3 0  9995
2 67688  51.6311  88.8989 0007710 138.4184 221.7393 15.52071816  4173
PRC TEST SPACECRAFT 4   
1 67689U 26024A   26065.27779862  .00000241  00000+0  47709-4 0  9994
2 67689  49.9862  38.7875 0006100 347.1370  12.9415 14.91685059  4077
CZ-2F R/B               
1 67690U 26024B   26065.25111338  .00020776  00000+0  38053-3 0  9998
2 67690  49.9883  31.8436 0174843 260.6164  97.4992 15.34169535  4161
CZ-2F DEB               
1 67691U 26024C   26065.29333557  .01425941  11108-4  74518-3 0  9998
2 67691  49.9031  22.6319 0139364 275.6090  82.9016 16.01000057  4274
CZ-2F DEB               
1 67692U 26024D   26065.26777142  .00246617  00000+0  43365-2 0  9997
2 67692  50.3190  35.4964 0236245 266.5438  90.8476 15.24125842  4100
STARLINK-36748          
1 67693U 26025A   26065.23849696  .00254464  00000+0  16493-2 0  9991
2 67693  97.2850 176.6009 0001032  60.0049 300.1319 15.75292251  5391
STARLINK-36753          
1 67694U 26025B   26065.29425807  .00161187  00000+0  10597-2 0  9990
2 67694  97.2860 176.6769 0001539  14.0910 346.0397 15.75224353  5410
STARLINK-36750          
1 67695U 26025C   26065.26141249  .00381142  00000+0  18964-2 0  9994
2 67695  97.2830 176.7229 0001698 117.5860 242.5581 15.80913933  5408
STARLINK-36401          
1 67696U 26025D   26065.28049860  .00289667  00000+0  18677-2 0  9993
2 67696  97.2843 176.6958 0000822 120.5846 239.5501 15.75314694  5408
STARLINK-36704          
1 67697U 26025E   26065.29214160  .00207138  00000+0  13537-2 0  9995
2 67697  97.2840 176.6777 0001271  36.9478 323.1875 15.75232420  5405
