CCSDS_OMM_VERS = 2.0
CREATION_DATE  = 
ORIGINATOR     = 

OBJECT_NAME    = ISS OBJECT YC
OBJECT_ID      = 1998-067YC
CENTER_NAME    = EARTH
REF_FRAME      = TEME
TIME_SYSTEM    = UTC
MEAN_ELEMENT_THEORY = SGP/SGP4

EPOCH          = 2026-03-06T05:48:04.208832
MEAN_MOTION    = 15.52288949
ECCENTRICITY   = .00078092
INCLINATION    = 51.6306
RA_OF_ASC_NODE = 88.8853
ARG_OF_PERICENTER = 138.1788
MEAN_ANOMALY   = 221.9799

EPHEMERIS_TYPE = 0
CLASSIFICATION_TYPE = U
NORAD_CAT_ID   = 67686
ELEMENT_SET_NO = 999
REV_AT_EPOCH   = 425
BSTAR          = .81032975E-3
MEAN_MOTION_DOT = .50083E-3
MEAN_MOTION_DDOT = 0

CCSDS_OMM_VERS = 2.0
CREATION_DATE  = 
ORIGINATOR     = 

OBJECT_NAME    = LEOPARD
OBJECT_ID      = 1998-067YD
CENTER_NAME    = EARTH
REF_FRAME      = TEME
TIME_SYSTEM    = UTC
MEAN_ELEMENT_THEORY = SGP/SGP4

EPOCH          = 2026-03-06T05:56:53.650752
MEAN_MOTION    = 15.51667616
ECCENTRICITY   = .00077913
INCLINATION    = 51.6309
RA_OF_ASC_NODE = 88.9257
ARG_OF_PERICENTER = 142.6903
MEAN_ANOMALY   = 217.4629

EPHEMERIS_TYPE = 0
CLASSIFICATION_TYPE = U
NORAD_CAT_ID   = 67687
ELEMENT_SET_NO = 999
REV_AT_EPOCH   = 417
BSTAR          = .70896947E-3
MEAN_MOTION_DOT = .42747E-3
MEAN_MOTION_DDOT = 0

CCSDS_OMM_VERS = 2.0
CREATION_DATE  = 
ORIGINATOR     = 

OBJECT_NAME    = ISS OBJECT YE
OBJECT_ID      = 1998-067YE
CENTER_NAME    = EARTH
REF_FRAME      = TEME
TIME_SYSTEM    = UTC
MEAN_ELEMENT_THEORY = SGP/SGP4

EPOCH          = 2026-03-06T05:50:55.071744
MEAN_MOTION    = 15.52071816
ECCENTRICITY   = .00077106
INCLINATION    = 51.6311
RA_OF_ASC_NODE = 88.8989
ARG_OF_PERICENTER = 138.4184
MEAN_ANOMALY   = 221.7393

EPHEMERIS_TYPE = 0
CLASSIFICATION_TYPE = U
NORAD_CAT_ID   = 67688
ELEMENT_SET_NO = 999
REV_AT_EPOCH   = 417
BSTAR          = .74592942E-3
MEAN_MOTION_DOT = .45678E-3
MEAN_MOTION_DDOT = 0

CCSDS_OMM_VERS = 2.0
CREATION_DATE  = 
ORIGINATOR     = 

OBJECT_NAME    = PRC TEST SPACECRAFT 4
OBJECT_ID      = 2026-024A
CENTER_NAME    = EARTH
REF_FRAME      = TEME
TIME_SYSTEM    = UTC
MEAN_ELEMENT_THEORY = SGP/SGP4

EPOCH          = 2026-03-06T06:40:01.800768
MEAN_MOTION    = 14.91685059
ECCENTRICITY   = .00061005
INCLINATION    = 49.9862
RA_OF_ASC_NODE = 38.7875
ARG_OF_PERICENTER = 347.1370
MEAN_ANOMALY   = 12.9415

EPHEMERIS_TYPE = 0
CLASSIFICATION_TYPE = U
NORAD_CAT_ID   = 67689
ELEMENT_SET_NO = 999
REV_AT_EPOCH   = 407
BSTAR          = .47708899E-4
MEAN_MOTION_DOT = .241E-5
MEAN_MOTION_DDOT = 0

CCSDS_OMM_VERS = 2.0
CREATION_DATE  = 
ORIGINATOR     = 

OBJECT_NAME    = CZ-2F R/B
OBJECT_ID      = 2026-024B
CENTER_NAME    = EARTH
REF_FRAME      = TEME
TIME_SYSTEM    = UTC
MEAN_ELEMENT_THEORY = SGP/SGP4

EPOCH          = 2026-03-06T06:01:36.196032
MEAN_MOTION    = 15.34169535
ECCENTRICITY   = .01748435
INCLINATION    = 49.9883
RA_OF_ASC_NODE = 31.8436
ARG_OF_PERICENTER = 260.6164
MEAN_ANOMALY   = 97.4992

EPHEMERIS_TYPE = 0
CLASSIFICATION_TYPE = U
NORAD_CAT_ID   = 67690
ELEMENT_SET_NO = 999
REV_AT_EPOCH   = 416
BSTAR          = .38053411E-3
MEAN_MOTION_DOT = .20776E-3
MEAN_MOTION_DDOT = 0

CCSDS_OMM_VERS = 2.0
CREATION_DATE  = 
ORIGINATOR     = 

OBJECT_NAME    = CZ-2F DEB
OBJECT_ID      = 2026-024C
CENTER_NAME    = EARTH
REF_FRAME      = TEME
TIME_SYSTEM    = UTC
MEAN_ELEMENT_THEORY = SGP/SGP4

EPOCH          = 2026-03-06T07:02:24.193248
MEAN_MOTION    = 16.01000057
ECCENTRICITY   = .01393649
INCLINATION    = 49.9031
RA_OF_ASC_NODE = 22.6319
ARG_OF_PERICENTER = 275.6090
MEAN_ANOMALY   = 82.9016

EPHEMERIS_TYPE = 0
CLASSIFICATION_TYPE = U
NORAD_CAT_ID   = 67691
ELEMENT_SET_NO = 999
REV_AT_EPOCH   = 427
BSTAR          = .74517819E-3
MEAN_MOTION_DOT = .1425941E-1
MEAN_MOTION_DDOT = .11107652E-4

CCSDS_OMM_VERS = 2.0
CREATION_DATE  = 
ORIGINATOR     = 

OBJECT_NAME    = CZ-2F DEB
OBJECT_ID      = 2026-024D
CENTER_NAME    = EARTH
REF_FRAME      = TEME
TIME_SYSTEM    = UTC
MEAN_ELEMENT_THEORY = SGP/SGP4

EPOCH          = 2026-03-06T06:25:35.450688
MEAN_MOTION    = 15.24125842
ECCENTRICITY   = .02362458
INCLINATION    = 50.3190
RA_OF_ASC_NODE = 35.4964
ARG_OF_PERICENTER = 266.5438
MEAN_ANOMALY   = 90.8476

EPHEMERIS_TYPE = 0
CLASSIFICATION_TYPE = U
NORAD_CAT_ID   = 67692
ELEMENT_SET_NO = 999
REV_AT_EPOCH   = 410
BSTAR          = .43365428E-2
MEAN_MOTION_DOT = .246617E-2
MEAN_MOTION_DDOT = 0

CCSDS_OMM_VERS = 2.0
CREATION_DATE  = 
ORIGINATOR     = 

OBJECT_NAME    = STARLINK-36748
OBJECT_ID      = 2026-025A
CENTER_NAME    = EARTH
REF_FRAME      = TEME
TIME_SYSTEM    = UTC
MEAN_ELEMENT_THEORY = SGP/SGP4

EPOCH          = 2026-03-06T05:43:26.137344
MEAN_MOTION    = 15.75292251
ECCENTRICITY   = .00010328
INCLINATION    = 97.2850
RA_OF_ASC_NODE = 176.6009
ARG_OF_PERICENTER = 60.0049
MEAN_ANOMALY   = 300.1319

EPHEMERIS_TYPE = 0
CLASSIFICATION_TYPE = U
NORAD_CAT_ID   = 67693
ELEMENT_SET_NO = 999
REV_AT_EPOCH   = 539
BSTAR          = .16492613E-2
MEAN_MOTION_DOT = .254464E-2
MEAN_MOTION_DDOT = 0

CCSDS_OMM_VERS = 2.0
CREATION_DATE  = 
ORIGINATOR     = 

OBJECT_NAME    = STARLINK-36753
OBJECT_ID      = 2026-025B
CENTER_NAME    = EARTH
REF_FRAME      = TEME
TIME_SYSTEM    = UTC
MEAN_ELEMENT_THEORY = SGP/SGP4

EPOCH          = 2026-03-06T07:03:43.897248
MEAN_MOTION    = 15.75224353
ECCENTRICITY   = .00015393
INCLINATION    = 97.2860
RA_OF_ASC_NODE = 176.6769
ARG_OF_PERICENTER = 14.0910
MEAN_ANOMALY   = 346.0397

EPHEMERIS_TYPE = 0
CLASSIFICATION_TYPE = U
NORAD_CAT_ID   = 67694
ELEMENT_SET_NO = 999
REV_AT_EPOCH   = 541
BSTAR          = .10596838E-2
MEAN_MOTION_DOT = .161187E-2
MEAN_MOTION_DDOT = 0

CCSDS_OMM_VERS = 2.0
CREATION_DATE  = 
ORIGINATOR     = 

OBJECT_NAME    = STARLINK-36750
OBJECT_ID      = 2026-025C
CENTER_NAME    = EARTH
REF_FRAME      = TEME
TIME_SYSTEM    = UTC
MEAN_ELEMENT_THEORY = SGP/SGP4

EPOCH          = 2026-03-06T06:16:26.039136
MEAN_MOTION    = 15.80913933
ECCENTRICITY   = .00016986
INCLINATION    = 97.2830
RA_OF_ASC_NODE = 176.7229
ARG_OF_PERICENTER = 117.5860
MEAN_ANOMALY   = 242.5581

EPHEMERIS_TYPE = 0
CLASSIFICATION_TYPE = U
NORAD_CAT_ID   = 67695
ELEMENT_SET_NO = 999
REV_AT_EPOCH   = 540
BSTAR          = .18964233E-2
MEAN_MOTION_DOT = .381142E-2
MEAN_MOTION_DDOT = 0

CCSDS_OMM_VERS = 2.0
CREATION_DATE  = 
ORIGINATOR     = 

OBJECT_NAME    = STARLINK-36401
OBJECT_ID      = 2026-025D
CENTER_NAME    = EARTH
REF_FRAME      = TEME
TIME_SYSTEM    = UTC
MEAN_ELEMENT_THEORY = SGP/SGP4

EPOCH          = 2026-03-06T06:43:55.079040
MEAN_MOTION    = 15.75314694
ECCENTRICITY   = .00008222
INCLINATION    = 97.2843
RA_OF_ASC_NODE = 176.6958
ARG_OF_PERICENTER = 120.5846
MEAN_ANOMALY   = 239.5501

EPHEMERIS_TYPE = 0
CLASSIFICATION_TYPE = U
NORAD_CAT_ID   = 67696
ELEMENT_SET_NO = 999
REV_AT_EPOCH   = 540
BSTAR          = .18676666E-2
MEAN_MOTION_DOT = .289667E-2
MEAN_MOTION_DDOT = 0

CCSDS_OMM_VERS = 2.0
CREATION_DATE  = 
ORIGINATOR     = 

OBJECT_NAME    = STARLINK-36704
OBJECT_ID      = 2026-025E
CENTER_NAME    = EARTH
REF_FRAME      = TEME
TIME_SYSTEM    = UTC
MEAN_ELEMENT_THEORY = SGP/SGP4

EPOCH          = 2026-03-06T07:00:41.034240
MEAN_MOTION    = 15.75232420
ECCENTRICITY   = .00012717
INCLINATION    = 97.2840
RA_OF_ASC_NODE = 176.6777
ARG_OF_PERICENTER = 36.9478
MEAN_ANOMALY   = 323.1875

EPHEMERIS_TYPE = 0
CLASSIFICATION_TYPE = U
NORAD_CAT_ID   = 67697
ELEMENT_SET_NO = 999
REV_AT_EPOCH   = 540
BSTAR          = .13537106E-2
MEAN_MOTION_DOT = .207138E-2
MEAN_MOTION_DDOT = 0

